NAVSTAR 74 (USA 262)    
1 40730U 15033A   25321.32333434 -.00000070  00000+0  00000+0 0  9990
2 40730  54.1529 275.8183 0109385  26.2025 334.3247  2.00566934 75743
BEIDOU-3S M2S           
1 40748U 15037A   25321.76423988 -.00000082  00000+0  00000+0 0  9998
2 40748  55.0607 309.3210 0012750 264.6664  95.1837  1.86229320 70187
BEIDOU-3S M1S           
1 40749U 15037B   25318.23952190 -.00000070  00000+0  00000+0 0  9996
2 40749  55.0603 309.4319 0003091 352.8503   7.1494  1.86253941 70127
GSAT0205 (GALILEO 9)    
1 40889U 15045A   25320.89309448 -.00000012  00000+0  00000+0 0  9993
2 40889  55.0130 227.4724 0005509  34.8562 325.2238  1.70472998 63393
GSAT0206 (GALILEO 10)   
1 40890U 15045B   25320.52715171 -.00000015  00000+0  00000+0 0  9992
2 40890  55.0123 227.4776 0003354  26.6868 333.3722  1.70473027 63413
BEIDOU-3S IGSO-2S       
1 40938U 15053A   25321.80569512 -.00000169  00000+0  00000+0 0  9992
2 40938  49.5524 261.3011 0060927 189.3879 352.6144  1.00276148 37237
NAVSTAR 75 (USA 265)    
1 41019U 15062A   25321.38257973 -.00000098  00000+0  00000+0 0  9992
2 41019  56.8143  38.9832 0110010 229.2847 129.7853  2.00567181 73582
GSAT-15                 
1 41028U 15065A   25321.65207133 -.00000242  00000+0  00000+0 0  9999
2 41028   0.0231 263.7691 0003322 306.7861 174.6521  1.00272213 36674
GSAT0209 (GALILEO 12)   
1 41174U 15079A   25321.86866647  .00000031  00000+0  00000+0 0  9995
2 41174  55.6976 107.0635 0002364   5.6767 354.2988  1.70474436 61175
GSAT0208 (GALILEO 11)   
1 41175U 15079B   25320.91565210  .00000034  00000+0  00000+0 0  9996
2 41175  55.6959 107.0868 0001946  19.1445 340.8405  1.70474199 61578
IRNSS-1E                
1 41241U 16003A   25317.71553168 -.00000295  00000+0  00000+0 0  9991
2 41241  32.7622  62.8752 0022921 184.5120 175.0849  1.00273438 35913
NAVSTAR 76 (USA 266)    
1 41328U 16007A   25321.46460756  .00000004  00000+0  00000+0 0  9995
2 41328  55.3915  97.8600 0090902 243.0056 116.0429  2.00562098 71595
COSMOS 2514 [GLONASS-M] 
1 41330U 16008A   25322.11801323 -.00000049  00000+0  00000+0 0  9991
2 41330  65.1475 320.2475 0012939 219.0290 140.8977  2.13102690 76127
